SatCatId,ObjectName,LaunchYear,OrbitalPeriod,LaunchMass,StatusCode,Inclination,Status,UcsData,OrbitClassEstimated,LaunchSiteCountry,Owner,UseType,Purpose,LaunchVehicleClass,TLE1,TLE2,MeanMotion,Eccentricity,OrbitClass
55957,STARLINK-5884,2023,96.11,290.0,+,70.0,Active,1,LEO,USA,USA,Commercial,Communications,Falcon,1 55957U 23037AV  24131.43588216 -.00000367  00000+0 -22960-4 0  9994,2 55957  69.9987 149.4267 0003084 268.2631  91.8175 14.98332242 64376,14.98332242,0.0003084,LEO
55958,STARLINK-5928,2023,96.11,290.0,+,70.0,Active,1,LEO,USA,USA,Commercial,Communications,Falcon,1 55958U 23037AW  24131.42753493 -.00000082  00000+0  95613-6 0  9995,2 55958  69.9987 149.3977 0003170 268.0939  91.9857 14.98329124 64372,14.98329124,0.000317,LEO
55959,STARLINK-5929,2023,96.11,290.0,+,70.0,Active,1,LEO,USA,USA,Commercial,Communications,Falcon,1 55959U 23037AX  24131.42336128 -.00001157  00000+0 -89134-4 0  9992,2 55959  69.9987 149.3831 0003091 271.0523  89.0281 14.98337581 64372,14.98337581,0.0003091,LEO
55960,STARLINK-5938,2023,96.11,290.0,+,70.0,Active,1,LEO,USA,USA,Commercial,Communications,Falcon,1 55960U 23037AY  24131.44422794 -.00000588  00000+0 -41475-4 0  9994,2 55960  69.9989 149.4373 0003392 267.6625  92.4146 14.98334067 64370,14.98334067,0.0003392,LEO
55961,STARLINK-5933,2023,96.1,290.0,+,70.0,Active,1,LEO,USA,USA,Commercial,Communications,Falcon,1 55961U 23037AZ  24131.47759573  .00000579  00000+0  56328-4 0  9997,2 55961  69.9987 149.1705 0003131 267.8288  92.2513 14.98329701 64389,14.98329701,0.0003131,LEO
55962,STARLINK-5906,2023,96.11,290.0,+,70.0,Active,1,LEO,USA,USA,Commercial,Communications,Falcon,1 55962U 23037BA  24131.44840291 -.00000587  00000+0 -41428-4 0  9999,2 55962  69.9991 149.4671 0003165 267.6192  92.4605 14.98334328 64373,14.98334328,0.0003165,LEO
55963,STARLINK-5924,2023,96.11,290.0,+,70.0,Active,1,LEO,USA,USA,Commercial,Communications,Falcon,1 55963U 23037BB  24131.48594384  .00000937  00000+0  86335-4 0  9996,2 55963  69.9986 149.2000 0003144 269.5099  90.5699 14.98334830 64387,14.9833483,0.0003144,LEO
55964,STARLINK-5895,2023,96.21,290.0,+,70.0,Active,1,LEO,USA,USA,Commercial,Communications,Falcon,1 55964U 23037BC  24131.47607517  .00000755  00000+0  73989-4 0  9998,2 55964  69.9985 147.9243 0003279 272.8390  87.2393 14.96708756 64419,14.96708756,0.0003279,LEO
55965,STARLINK-5894,2023,96.11,290.0,+,70.0,Active,1,LEO,USA,USA,Commercial,Communications,Falcon,1 55965U 23037BD  24131.46924688  .00000713  00000+0  67511-4 0  9997,2 55965  69.9987 149.1418 0003129 270.0059  90.0741 14.98331391 64380,14.98331391,0.0003129,LEO
55970,SES-18,2023,1436.11,3605.0,+,0.01,Active,1,GSO,USA,SES,Commercial,Communications,Falcon,1 55970U 23038A   24131.44609240 -.00000104  00000+0  00000+0 0  9996,2 55970   0.0137 274.1766 0001053  52.5945 319.4567  1.00271190  4405,1.0027119,0.0001053,GEO
55971,SES-19,2023,1436.07,3650.0,+,0.05,Active,1,GSO,USA,SES,Commercial,Communications,Falcon,1 55971U 23038B   24131.23226404  .00000085  00000+0  00000+0 0  9998,2 55971   0.0511  90.0329 0001201 307.2028 139.9850  1.00273752  4371,1.00273752,0.0001201,GEO
55973,TIANMU-1 03,2023,94.44,50.0,+,97.47,Active,1,LEO,PRC,China,Commercial,Meteorological,Kuaizhou,1 55973U 23039A   24131.43328640  .00008008  00000+0  32480-3 0  9992,2 55973  97.4653 282.2232 0010343 245.7281 114.2877 15.24846232 63103,15.24846232,0.0010343,LEO
55974,TIANMU-1 04,2023,94.44,50.0,+,97.46,Active,1,LEO,PRC,China,Commercial,Meteorological,Kuaizhou,1 55974U 23039B   24131.41655127  .00015296  00000+0  61872-3 0  9998,2 55974  97.4575 281.8071 0008604 247.9309 112.1015 15.24776027 63098,15.24776027,0.0008604,LEO
55975,TIANMU-1 05,2023,94.42,50.0,+,97.46,Active,1,LEO,PRC,China,Commercial,Meteorological,Kuaizhou,1 55975U 23039C   24131.53324775  .00013521  00000+0  54192-3 0  9990,2 55975  97.4624 282.2223 0005113 227.9245 132.1558 15.25132774 63109,15.25132774,0.0005113,LEO
55976,TIANMU-1 06,2023,94.41,50.0,+,97.46,Active,1,LEO,PRC,China,Commercial,Meteorological,Kuaizhou,1 55976U 23039D   24131.58321911  .00012904  00000+0  51812-3 0  9995,2 55976  97.4646 282.3803 0004509 242.8103 117.2675 15.25087090 63111,15.2508709,0.0004509,LEO
55978,COSMOS 2567,2023,94.57,3700.0,+,97.6,Active,1,LEO,Russia,Russia/USSR,Military,Earth Observation,Soyuz,1 55978U 23040A   24131.60737984  .00008188  00000+0  35362-3 0  9994,2 55978  97.5996  36.5643 0005281 295.5894  64.4796 15.22756857 63076,15.22756857,0.0005281,LEO
55982,GLOBAL-19,2023,93.56,55.0,+,42.01,Active,1,LEO,New Zealand,USA,Commercial,Earth Observation,Electron,1 55982U 23041B   24131.51759595  .00032832  00000+0  83060-3 0  9993,2 55982  42.0126   0.5927 0004978 220.5127 139.5343 15.39119012 63689,15.39119012,0.0004978,LEO
55986,STARLINK-5905,2023,95.84,290.0,+,43.0,Active,1,LEO,USA,USA,Commercial,Communications,Falcon,1 55986U 23042A   24131.57005635  .00000272  00000+0  35214-4 0  9995,2 55986  43.0033  86.8500 0001250 260.2456  99.8245 15.02532311 63221,15.02532311,0.000125,LEO
55987,STARLINK-5915,2023,95.84,290.0,+,43.0,Active,1,LEO,USA,USA,Commercial,Communications,Falcon,1 55987U 23042B   24131.28638073  .00001446  00000+0  12205-3 0  9990,2 55987  43.0035  88.1591 0001083 270.8295  89.2424 15.02538457 62364,15.02538457,0.0001083,LEO
55988,STARLINK-5916,2023,95.84,290.0,+,43.0,Active,1,LEO,USA,USA,Commercial,Communications,Falcon,1 55988U 23042C   24131.56339189  .00000915  00000+0  82806-4 0  9993,2 55988  43.0043  86.7996 0001349 256.3824 103.6868 15.02538350 62409,15.0253835,0.0001349,LEO
55989,STARLINK-5947,2023,95.84,290.0,+,43.0,Active,1,LEO,USA,USA,Commercial,Communications,Falcon,1 55989U 23042D   24131.55894757  .00000359  00000+0  41612-4 0  9992,2 55989  43.0039  86.7649 0001366 265.8686  94.2000 15.02546518 62408,15.02546518,0.0001366,LEO
55990,STARLINK-5946,2023,95.84,290.0,+,43.0,Active,1,LEO,USA,USA,Commercial,Communications,Falcon,1 55990U 23042E   24131.56672285  .00001323  00000+0  11298-3 0  9993,2 55990  43.0036  86.8241 0001339 262.1375  97.9315 15.02538599 62400,15.02538599,0.0001339,LEO
55991,STARLINK-5948,2023,95.84,290.0,+,43.01,Active,1,LEO,USA,USA,Commercial,Communications,Falcon,1 55991U 23042F   24131.14455207 -.00002485  00000+0 -16898-3 0  9994,2 55991  43.0075  88.8164 0002464 261.5417  98.5146 15.02522884 62342,15.02522884,0.0002464,LEO
55992,STARLINK-5962,2023,95.84,290.0,+,43.0,Active,1,LEO,USA,USA,Commercial,Communications,Falcon,1 55992U 23042G   24131.28749221  .00000101  00000+0  22575-4 0  9993,2 55992  43.0037  88.1686 0001213 260.6269  99.4436 15.02536223 62365,15.02536223,0.0001213,LEO
55993,STARLINK-5969,2023,95.84,290.0,+,43.0,Active,1,LEO,USA,USA,Commercial,Communications,Falcon,1 55993U 23042H   24131.56228452  .00001099  00000+0  96417-4 0  9996,2 55993  43.0044  86.7917 0001255 267.0424  93.0274 15.02535360 62401,15.0253536,0.0001255,LEO
55994,STARLINK-5956,2023,95.84,290.0,+,43.0,Active,1,LEO,USA,USA,Commercial,Communications,Falcon,1 55994U 23042J   24131.28416147  .00000442  00000+0  47796-4 0  9993,2 55994  43.0042  88.1420 0001284 266.2264  93.8431 15.02537133 62368,15.02537133,0.0001284,LEO
55995,STARLINK-5957,2023,95.84,290.0,+,43.0,Active,1,LEO,USA,USA,Commercial,Communications,Falcon,1 55995U 23042K   24131.55562602 -.00001009  00000+0 -59643-4 0  9998,2 55995  43.0040  86.7407 0000976 271.2346  88.8384 15.02542415 62405,15.02542415,9.76e-05,LEO
55996,STARLINK-5903,2023,95.84,290.0,+,43.0,Active,1,LEO,USA,USA,Commercial,Communications,Falcon,1 55996U 23042L   24131.60323636  .00005887  00000+0  45061-3 0  9991,2 55996  43.0051  86.2395 0001458 262.0770  97.9906 15.02525630 62416,15.0252563,0.0001458,LEO
55997,STARLINK-5904,2023,91.7,290.0,P,43.0,Active,1,LEO,USA,USA,Commercial,Communications,Falcon,1 55997U 23042M   24131.17718931 -.00000054  00000+0  31151-5 0  9999,2 55997  43.0011  69.2005 0001483 260.0751  99.9949 15.70301769 62573,15.70301769,0.0001483,LEO
55998,STARLINK-5902,2023,95.84,290.0,+,43.0,Active,1,LEO,USA,USA,Commercial,Communications,Falcon,1 55998U 23042N   24131.59879090  .00001522  00000+0  12771-3 0  9995,2 55998  43.0045  86.2040 0001636 264.9689  95.0967 15.02537621 62415,15.02537621,0.0001636,LEO
55999,STARLINK-5901,2023,95.84,290.0,+,43.0,Active,1,LEO,USA,USA,Commercial,Communications,Falcon,1 55999U 23042P   24131.27416693  .00002122  00000+0  17210-3 0  9997,2 55999  43.0031  88.0677 0001056 264.3075  95.7647 15.02543054 62369,15.02543054,0.0001056,LEO
56000,STARLINK-5910,2023,95.84,290.0,+,43.0,Active,1,LEO,USA,USA,Commercial,Communications,Falcon,1 56000U 23042Q   24131.58658445  .00001530  00000+0  12827-3 0  9999,2 56000  43.0030  86.1090 0001266 271.0705  88.9992 15.02537101 62417,15.02537101,0.0001266,LEO
56001,STARLINK-5944,2023,95.84,290.0,+,43.0,Active,1,LEO,USA,USA,Commercial,Communications,Falcon,1 56001U 23042R   24131.59546590 -.00001409  00000+0 -89285-4 0  9998,2 56001  43.0032  86.1785 0000916 279.6518  80.4220 15.02537962 62414,15.02537962,9.16e-05,LEO
56002,STARLINK-5799,2023,95.84,290.0,+,43.0,Active,1,LEO,USA,USA,Commercial,Communications,Falcon,1 56002U 23042S   24131.58990852  .00003715  00000+0  28986-3 0  9992,2 56002  43.0037  86.1372 0001349 267.1062  92.9626 15.02547748 62410,15.02547748,0.0001349,LEO
56003,STARLINK-5789,2023,95.84,290.0,+,43.01,Active,1,LEO,USA,USA,Commercial,Communications,Falcon,1 56003U 23042T   24131.60212819  .00000614  00000+0  60550-4 0  9995,2 56003  43.0034  86.2287 0001311 264.7203  95.3490 15.02533702 62414,15.02533702,0.0001311,LEO
56004,STARLINK-5787,2023,95.84,290.0,+,43.01,Active,1,LEO,USA,USA,Commercial,Communications,Falcon,1 56004U 23042U   24131.25087069 -.00000092  00000+0  82577-5 0  9999,2 56004  43.0051  87.8929 0001261 270.1436  89.9262 15.02527866 62361,15.02527866,0.0001261,LEO
